QIANFAN-17              
1 60395U 24140S   25239.19176316  .00000118  00000+0  16453-3 0  9990
2 60395  88.9834 310.5533 0016427 150.5184 209.6897 13.50966276 53610
QIANFAN-18              
1 60396U 24140T   25239.17127682  .00000088  00000+0  11788-3 0  9993
2 60396  88.9826 310.0973 0016179 134.8186 225.4283 13.50968066 53003
QIANFAN-19              
1 61552U 24185A   25239.17785403  .00000403  00000+0  20415-3 0  9996
2 61552  88.9770  90.2833 0005196 301.8448  58.2232 14.14133076 54465
QIANFAN-20              
1 61553U 24185B   25239.22071527  .00000429  00000+0  24123-3 0  9996
2 61553  88.9769  90.4939 0005407 345.7820  14.3211 14.08685775 54358
QIANFAN-21              
1 61554U 24185C   25239.19472894  .00000604  00000+0  26515-3 0  9997
2 61554  88.9684  89.5926 0010949   5.3296 354.8009 14.22388111 54686
QIANFAN-22              
1 61555U 24185D   25239.16902394  .00000210  00000+0  17043-3 0  9997
2 61555  88.9755  91.0481 0005978 341.8736  18.2222 13.86245283 54031
QIANFAN-23              
1 61556U 24185E   25239.23370243  .00000515  00000+0  25364-3 0  9991
2 61556  88.9763  90.1364 0006326 316.1720  43.8965 14.16107349 54534
QIANFAN-24              
1 61557U 24185F   25239.14772067  .00000610  00000+0  26159-3 0  9991
2 61557  88.9743  89.7274 0007640 297.1395  62.9017 14.23588054 54717
